EUTELSAT 115 WEST B     
1 40425U 15010B   25208.67066032 -.00000032  00000+0  00000+0 0  9993
2 40425   0.0090 197.7724 0000164 285.4708 308.8795  1.00270545 38137
EUTELSAT 8 WEST B       
1 40875U 15039B   25208.90608985 -.00000072  00000+0  00000+0 0  9992
2 40875   0.0635   0.1187 0003692 125.3273 138.5711  1.00271078 36405
EUTELSAT 9B             
1 41310U 16005A   25209.12358726  .00000055  00000+0  00000+0 0  9991
2 41310   0.0271  60.4207 0001159  74.1215 224.9526  1.00270933 34862
EUTELSAT 65 WEST A      
1 41382U 16014A   25208.82332808 -.00000283  00000+0  00000+0 0  9993
2 41382   0.0521 345.4604 0002299 141.4164  50.0447  1.00270574 34280
EUTELSAT 117 WEST B     
1 41589U 16038B   25209.16995918 -.00000018  00000+0  00000+0 0  9999
2 41589   0.0096 161.5362 0000206  26.9068  61.8290  1.00272226 33450
EUTELSAT 172B           
1 42741U 17029B   25208.54767098 -.00000014  00000+0  00000+0 0  9994
2 42741   0.0178 144.1609 0000048 245.3577 285.0926  1.00271921 30453
EUTELSAT 7C             
1 44334U 19034B   25208.26658404  .00000039  00000+0  00000+0 0  9997
2 44334   0.0733 190.7529 0003203 280.5451 296.8346  1.00271059  3577
EUTELSAT 5 WEST B       
1 44624U 19067A   25209.19223260 -.00000048  00000+0  00000+0 0  9997
2 44624   0.0907 311.6686 0003185 172.6594 245.9803  1.00269809 21188
